{
  "type": "FeatureCollection",
  "features": [
    {
      "type": "Feature",
      "properties": {
        "norad_id": 34350,
        "name": "IRIDIUM 33 DEB",
        "group": "iridium-33-debris",
        "lat": 46.93676039849852,
        "lon": 6.929307101258181,
        "alt_km": 736.4737510266114,
        "timestamp": "2025-12-12T07:43:20.900236+00:00",
        "meta_object_name": "IRIDIUM 33 DEB",
        "meta_object_id": "1997-051ES",
        "meta_epoch": "2025-12-12T01:07:32.542752",
        "meta_mean_motion": 14.45384473,
        "meta_eccentricity": 0.00227739,
        "meta_inclination": 86.3275,
        "meta_ra_of_asc_node": 3.1079,
        "meta_arg_of_pericenter": 137.3391,
        "meta_mean_anomaly": 280.7434,
        "meta_ephemeris_type": 0,
        "meta_classification_type": "U",
        "meta_norad_cat_id": 34350,
        "meta_element_set_no": 999,
        "meta_rev_at_epoch": 88283,
        "meta_bstar": 0.00047566967,
        "meta_mean_motion_dot": 1.697e-05,
        "meta_mean_motion_ddot": 0,
        "tle_line1": "1 34350U 97051ES  25346.04690443  .00001697  00000+0  47567-3 0  9991",
        "tle_line2": "2 34350  86.3275   3.1079 0022773 137.3391 280.7434 14.45384473882836"
      },
      "geometry": {
        "type": "Point",
        "coordinates": [
          6.929307101258181,
          46.93676039849852
        ]
      }
    },
    {
      "type": "Feature",
      "properties": {
        "norad_id": 34366,
        "name": "IRIDIUM 33 DEB",
        "group": "iridium-33-debris",
        "lat": 2.0213799797540797,
        "lon": 49.62328839899727,
        "alt_km": 727.1206225459409,
        "timestamp": "2025-12-12T07:43:20.900246+00:00",
        "meta_object_name": "IRIDIUM 33 DEB",
        "meta_object_id": "1997-051FJ",
        "meta_epoch": "2025-12-11T05:33:55.951776",
        "meta_mean_motion": 14.54036307,
        "meta_eccentricity": 0.00222951,
        "meta_inclination": 86.3694,
        "meta_ra_of_asc_node": 49.9688,
        "meta_arg_of_pericenter": 144.5199,
        "meta_mean_anomaly": 276.4662,
        "meta_ephemeris_type": 0,
        "meta_classification_type": "U",
        "meta_norad_cat_id": 34366,
        "meta_element_set_no": 999,
        "meta_rev_at_epoch": 88160,
        "meta_bstar": 0.0016787671,
        "meta_mean_motion_dot": 7.125e-05,
        "meta_mean_motion_ddot": 0,
        "tle_line1": "1 34366U 97051FJ  25345.23189759  .00007125  00000+0  16788-2 0  9993",
        "tle_line2": "2 34366  86.3694  49.9688 0022295 144.5199 276.4662 14.54036307881606"
      },
      "geometry": {
        "type": "Point",
        "coordinates": [
          49.62328839899727,
          2.0213799797540797
        ]
      }
    },
    {
      "type": "Feature",
      "properties": {
        "norad_id": 34375,
        "name": "IRIDIUM 33 DEB",
        "group": "iridium-33-debris",
        "lat": -28.85279827677366,
        "lon": -179.10243039617637,
        "alt_km": 906.42343562319,
        "timestamp": "2025-12-12T07:43:20.900257+00:00",
        "meta_object_name": "IRIDIUM 33 DEB",
        "meta_object_id": "1997-051FT",
        "meta_epoch": "2025-12-12T00:08:57.011424",
        "meta_mean_motion": 14.17990153,
        "meta_eccentricity": 0.0103263,
        "meta_inclination": 86.4328,
        "meta_ra_of_asc_node": 182.9943,
        "meta_arg_of_pericenter": 129.0153,
        "meta_mean_anomaly": 32.8209,
        "meta_ephemeris_type": 0,
        "meta_classification_type": "U",
        "meta_norad_cat_id": 34375,
        "meta_element_set_no": 999,
        "meta_rev_at_epoch": 86701,
        "meta_bstar": 0.00060669678,
        "meta_mean_motion_dot": 1.328e-05,
        "meta_mean_motion_ddot": 0,
        "tle_line1": "1 34375U 97051FT  25346.00621541  .00001328  00000+0  60670-3 0  9998",
        "tle_line2": "2 34375  86.4328 182.9943 0103263 129.0153  32.8209 14.17990153867013"
      },
      "geometry": {
        "type": "Point",
        "coordinates": [
          -179.10243039617637,
          -28.85279827677366
        ]
      }
    },
    {
      "type": "Feature",
      "properties": {
        "norad_id": 34376,
        "name": "IRIDIUM 33 DEB",
        "group": "iridium-33-debris",
        "lat": -81.79419019094782,
        "lon": -19.942430784312652,
        "alt_km": 698.6326619568399,
        "timestamp": "2025-12-12T07:43:20.900267+00:00",
        "meta_object_name": "IRIDIUM 33 DEB",
        "meta_object_id": "1997-051FU",
        "meta_epoch": "2025-12-11T05:49:44.575392",
        "meta_mean_motion": 14.62535541,
        "meta_eccentricity": 0.00270137,
        "meta_inclination": 86.299,
        "meta_ra_of_asc_node": 7.2126,
        "meta_arg_of_pericenter": 171.6428,
        "meta_mean_anomaly": 188.5239,
        "meta_ephemeris_type": 0,
        "meta_classification_type": "U",
        "meta_norad_cat_id": 34376,
        "meta_element_set_no": 999,
        "meta_rev_at_epoch": 87985,
        "meta_bstar": 0.0027609719,
        "meta_mean_motion_dot": 0.00014114,
        "meta_mean_motion_ddot": 0,
        "tle_line1": "1 34376U 97051FU  25345.24287703  .00014114  00000+0  27610-2 0  9995",
        "tle_line2": "2 34376  86.2990   7.2126 0027013 171.6428 188.5239 14.62535541879858"
      },
      "geometry": {
        "type": "Point",
        "coordinates": [
          -19.942430784312652,
          -81.79419019094782
        ]
      }
    },
    {
      "type": "Feature",
      "properties": {
        "norad_id": 34486,
        "name": "IRIDIUM 33 DEB",
        "group": "iridium-33-debris",
        "lat": 82.61735984458451,
        "lon": 41.34238860450501,
        "alt_km": 564.4909748558703,
        "timestamp": "2025-12-12T07:43:20.900278+00:00",
        "meta_object_name": "IRIDIUM 33 DEB",
        "meta_object_id": "1997-051GB",
        "meta_epoch": "2025-12-11T02:42:46.568736",
        "meta_mean_motion": 14.95675901,
        "meta_eccentricity": 0.00135337,
        "meta_inclination": 86.394,
        "meta_ra_of_asc_node": 12.7753,
        "meta_arg_of_pericenter": 118.272,
        "meta_mean_anomaly": 301.206,
        "meta_ephemeris_type": 0,
        "meta_classification_type": "U",
        "meta_norad_cat_id": 34486,
        "meta_element_set_no": 999,
        "meta_rev_at_epoch": 88962,
        "meta_bstar": 0.0032070049,
        "meta_mean_motion_dot": 0.00035889,
        "meta_mean_motion_ddot": 0,
        "tle_line1": "1 34486U 97051GB  25345.11303899  .00035889  00000+0  32070-2 0  9996",
        "tle_line2": "2 34486  86.3940  12.7753 0013533 118.2720 301.2060 14.95675901889620"
      },
      "geometry": {
        "type": "Point",
        "coordinates": [
          41.34238860450501,
          82.61735984458451
        ]
      }
    },
    {
      "type": "Feature",
      "properties": {
        "norad_id": 34487,
        "name": "IRIDIUM 33 DEB",
        "group": "iridium-33-debris",
        "lat": 1.5381409514319304,
        "lon": -167.54111115169053,
        "alt_km": 735.3563911782512,
        "timestamp": "2025-12-12T07:43:20.900288+00:00",
        "meta_object_name": "IRIDIUM 33 DEB",
        "meta_object_id": "1997-051GC",
        "meta_epoch": "2025-12-11T13:19:44.628096",
        "meta_mean_motion": 14.43213873,
        "meta_eccentricity": 0.00326872,
        "meta_inclination": 86.3435,
        "meta_ra_of_asc_node": 12.8871,
        "meta_arg_of_pericenter": 132.1044,
        "meta_mean_anomaly": 26.644,
        "meta_ephemeris_type": 0,
        "meta_classification_type": "U",
        "meta_norad_cat_id": 34487,
        "meta_element_set_no": 999,
        "meta_rev_at_epoch": 88231,
        "meta_bstar": 0.00027773351,
        "meta_mean_motion_dot": 9.6e-06,
        "meta_mean_motion_ddot": 0,
        "tle_line1": "1 34487U 97051GC  25345.55537764  .00000960  00000+0  27773-3 0  9992",
        "tle_line2": "2 34487  86.3435  12.8871 0032687 132.1044  26.6440 14.43213873882315"
      },
      "geometry": {
        "type": "Point",
        "coordinates": [
          -167.54111115169053,
          1.5381409514319304
        ]
      }
    },
    {
      "type": "Feature",
      "properties": {
        "norad_id": 34488,
        "name": "IRIDIUM 33 DEB",
        "group": "iridium-33-debris",
        "lat": 16.526286024556825,
        "lon": -52.8859224448564,
        "alt_km": 470.72269305043847,
        "timestamp": "2025-12-12T07:43:20.900299+00:00",
        "meta_object_name": "IRIDIUM 33 DEB",
        "meta_object_id": "1997-051GD",
        "meta_epoch": "2025-12-11T08:05:29.176800",
        "meta_mean_motion": 15.28894611,
        "meta_eccentricity": 0.00136408,
        "meta_inclination": 86.3246,
        "meta_ra_of_asc_node": 306.5086,
        "meta_arg_of_pericenter": 54.3044,
        "meta_mean_anomaly": 305.9471,
        "meta_ephemeris_type": 0,
        "meta_classification_type": "U",
        "meta_norad_cat_id": 34488,
        "meta_element_set_no": 999,
        "meta_rev_at_epoch": 89218,
        "meta_bstar": 0.0084778967,
        "meta_mean_motion_dot": 0.00245926,
        "meta_mean_motion_ddot": 0,
        "tle_line1": "1 34488U 97051GD  25345.33714325  .00245926  00000+0  84779-2 0  9990",
        "tle_line2": "2 34488  86.3246 306.5086 0013640  54.3044 305.9471 15.28894611892182"
      },
      "geometry": {
        "type": "Point",
        "coordinates": [
          -52.8859224448564,
          16.526286024556825
        ]
      }
    }
  ]
}